[{"OBJECT_NAME":"IRIDIUM 33 DEB","OBJECT_ID":"1997-051AAB","EPOCH":"2026-04-25T19:24:24.031872","MEAN_MOTION":14.51372713,"ECCENTRICITY":0.00254499,"INCLINATION":86.3405,"RA_OF_ASC_NODE":311.6248,"ARG_OF_PERICENTER":2.9253,"MEAN_ANOMALY":357.2096,"EPHEMERIS_TYPE":0,"CLASSIFICATION_TYPE":"U","NORAD_CAT_ID":38474,"ELEMENT_SET_NO":999,"REV_AT_EPOCH":67262,"BSTAR":0.00030883616,"MEAN_MOTION_DOT":1.256e-5,"MEAN_MOTION_DDOT":0},{"OBJECT_NAME":"IRIDIUM 33 DEB","OBJECT_ID":"1997-051AAJ","EPOCH":"2026-04-25T09:47:00.901248","MEAN_MOTION":14.60004832,"ECCENTRICITY":0.00616742,"INCLINATION":85.957,"RA_OF_ASC_NODE":109.9732,"ARG_OF_PERICENTER":94.7175,"MEAN_ANOMALY":266.1082,"EPHEMERIS_TYPE":0,"CLASSIFICATION_TYPE":"U","NORAD_CAT_ID":39777,"ELEMENT_SET_NO":999,"REV_AT_EPOCH":62133,"BSTAR":0.0029982556,"MEAN_MOTION_DOT":0.00014814,"MEAN_MOTION_DDOT":0},{"OBJECT_NAME":"IRIDIUM 33 DEB","OBJECT_ID":"1997-051AAK","EPOCH":"2026-04-25T14:48:55.417248","MEAN_MOTION":14.55443484,"ECCENTRICITY":0.00053933,"INCLINATION":86.3798,"RA_OF_ASC_NODE":345.0723,"ARG_OF_PERICENTER":310.2779,"MEAN_ANOMALY":49.7956,"EPHEMERIS_TYPE":0,"CLASSIFICATION_TYPE":"U","NORAD_CAT_ID":39778,"ELEMENT_SET_NO":999,"REV_AT_EPOCH":62639,"BSTAR":0.00064891034,"MEAN_MOTION_DOT":2.841e-5,"MEAN_MOTION_DDOT":0},{"OBJECT_NAME":"IRIDIUM 33 DEB","OBJECT_ID":"1997-051AAN","EPOCH":"2026-04-25T11:37:59.256768","MEAN_MOTION":14.24075367,"ECCENTRICITY":0.01757999,"INCLINATION":86.3746,"RA_OF_ASC_NODE":202.7651,"ARG_OF_PERICENTER":202.3236,"MEAN_ANOMALY":172.8803,"EPHEMERIS_TYPE":0,"CLASSIFICATION_TYPE":"U","NORAD_CAT_ID":39781,"ELEMENT_SET_NO":999,"REV_AT_EPOCH":10008,"BSTAR":0.0051086797,"MEAN_MOTION_DOT":0.00013815,"MEAN_MOTION_DDOT":0},{"OBJECT_NAME":"IRIDIUM 33 DEB","OBJECT_ID":"1997-051ABJ","EPOCH":"2026-04-20T07:20:53.130336","MEAN_MOTION":15.07801729,"ECCENTRICITY":0.00043032,"INCLINATION":86.3437,"RA_OF_ASC_NODE":300.7606,"ARG_OF_PERICENTER":299.311,"MEAN_ANOMALY":181.5769,"EPHEMERIS_TYPE":0,"CLASSIFICATION_TYPE":"U","NORAD_CAT_ID":40996,"ELEMENT_SET_NO":999,"REV_AT_EPOCH":64418,"BSTAR":0.0013394443,"MEAN_MOTION_DOT":0.00020553,"MEAN_MOTION_DDOT":0},{"OBJECT_NAME":"IRIDIUM 33 DEB","OBJECT_ID":"1997-051ABL","EPOCH":"2026-04-24T10:35:28.054752","MEAN_MOTION":14.45613331,"ECCENTRICITY":0.00082413,"INCLINATION":86.3864,"RA_OF_ASC_NODE":356.9634,"ARG_OF_PERICENTER":14.724,"MEAN_ANOMALY":107.0747,"EPHEMERIS_TYPE":0,"CLASSIFICATION_TYPE":"U","NORAD_CAT_ID":40998,"ELEMENT_SET_NO":999,"REV_AT_EPOCH":8598,"BSTAR":0.00027538812,"MEAN_MOTION_DOT":9.93e-6,"MEAN_MOTION_DDOT":0},{"OBJECT_NAME":"IRIDIUM 33 DEB","OBJECT_ID":"1997-051ABR","EPOCH":"2026-04-19T07:18:25.884864","MEAN_MOTION":14.42791376,"ECCENTRICITY":0.00376703,"INCLINATION":86.2589,"RA_OF_ASC_NODE":306.8288,"ARG_OF_PERICENTER":271.8827,"MEAN_ANOMALY":269.0255,"EPHEMERIS_TYPE":0,"CLASSIFICATION_TYPE":"U","NORAD_CAT_ID":46734,"ELEMENT_SET_NO":999,"REV_AT_EPOCH":64849,"BSTAR":0.00056413179,"MEAN_MOTION_DOT":1.915e-5,"MEAN_MOTION_DDOT":0},{"OBJECT_NAME":"IRIDIUM 33 DEB","OBJECT_ID":"1997-051ABX","EPOCH":"2026-04-25T17:11:28.625856","MEAN_MOTION":14.61321831,"ECCENTRICITY":0.00175799,"INCLINATION":86.3313,"RA_OF_ASC_NODE":281.2191,"ARG_OF_PERICENTER":225.3756,"MEAN_ANOMALY":150.5187,"EPHEMERIS_TYPE":0,"CLASSIFICATION_TYPE":"U","NORAD_CAT_ID":46965,"ELEMENT_SET_NO":999,"REV_AT_EPOCH":64224,"BSTAR":0.00061601478,"MEAN_MOTION_DOT":3.069e-5,"MEAN_MOTION_DDOT":0},{"OBJECT_NAME":"IRIDIUM 33 DEB","OBJECT_ID":"1997-051ACD","EPOCH":"2026-04-22T04:24:16.252416","MEAN_MOTION":15.0715261,"ECCENTRICITY":0.00069493,"INCLINATION":86.318,"RA_OF_ASC_NODE":271.1995,"ARG_OF_PERICENTER":192.0494,"MEAN_ANOMALY":295.057,"EPHEMERIS_TYPE":0,"CLASSIFICATION_TYPE":"U","NORAD_CAT_ID":46971,"ELEMENT_SET_NO":999,"REV_AT_EPOCH":66189,"BSTAR":0.0017286892,"MEAN_MOTION_DOT":0.00026083,"MEAN_MOTION_DDOT":0},{"OBJECT_NAME":"IRIDIUM 33 DEB","OBJECT_ID":"1997-051ACE","EPOCH":"2026-04-11T10:21:22.178016","MEAN_MOTION":14.5129921,"ECCENTRICITY":0.00118657,"INCLINATION":86.391,"RA_OF_ASC_NODE":347.8745,"ARG_OF_PERICENTER":68.0639,"MEAN_ANOMALY":58.2244,"EPHEMERIS_TYPE":0,"CLASSIFICATION_TYPE":"U","NORAD_CAT_ID":46972,"ELEMENT_SET_NO":999,"REV_AT_EPOCH":63308,"BSTAR":0.00032217764,"MEAN_MOTION_DOT":1.303e-5,"MEAN_MOTION_DDOT":0},{"OBJECT_NAME":"IRIDIUM 33 DEB","OBJECT_ID":"1997-051ACG","EPOCH":"2026-04-25T01:34:31.264896","MEAN_MOTION":14.47388047,"ECCENTRICITY":0.00918802,"INCLINATION":86.2984,"RA_OF_ASC_NODE":46.8927,"ARG_OF_PERICENTER":101.7128,"MEAN_ANOMALY":259.4402,"EPHEMERIS_TYPE":0,"CLASSIFICATION_TYPE":"U","NORAD_CAT_ID":46974,"ELEMENT_SET_NO":999,"REV_AT_EPOCH":59435,"BSTAR":0.0022033479,"MEAN_MOTION_DOT":8.541e-5,"MEAN_MOTION_DDOT":0}]
