IRIDIUM 33 DEB          
1 38474U 97051AAB 26115.80861147  .00001256  00000+0  30884-3 0  9997
2 38474  86.3405 311.6248 0025450   2.9253 357.2096 14.51372713672625
IRIDIUM 33 DEB          
1 39777U 97051AAJ 26115.40764932  .00014814  00000+0  29983-2 0  9995
2 39777  85.9570 109.9732 0061674  94.7175 266.1082 14.60004832621335
IRIDIUM 33 DEB          
1 39778U 97051AAK 26115.61730807  .00002841  00000+0  64891-3 0  9998
2 39778  86.3798 345.0723 0005393 310.2779  49.7956 14.55443484626398
IRIDIUM 33 DEB          
1 39781U 97051AAN 26115.48471361  .00013815  00000+0  51087-2 0  9999
2 39781  86.3746 202.7651 0175800 202.3236 172.8803 14.24075367100083
IRIDIUM 33 DEB          
1 40996U 97051ABJ 26110.30617049  .00020553  00000+0  13394-2 0  9996
2 40996  86.3437 300.7606 0004303 299.3110 181.5769 15.07801729644188
IRIDIUM 33 DEB          
1 40998U 97051ABL 26114.44129693  .00000993  00000+0  27539-3 0  9993
2 40998  86.3864 356.9634 0008241  14.7240 107.0747 14.45613331 85983
IRIDIUM 33 DEB          
1 46734U 97051ABR 26109.30446626  .00001915  00000+0  56413-3 0  9992
2 46734  86.2589 306.8288 0037670 271.8827 269.0255 14.42791376648491
IRIDIUM 33 DEB          
1 46965U 97051ABX 26115.71630353  .00003069  00000+0  61601-3 0  9999
2 46965  86.3313 281.2191 0017580 225.3756 150.5187 14.61321831642246
IRIDIUM 33 DEB          
1 46971U 97051ACD 26112.18352144  .00026083  00000+0  17287-2 0  9994
2 46971  86.3180 271.1995 0006949 192.0494 295.0570 15.07152610661892
IRIDIUM 33 DEB          
1 46972U 97051ACE 26101.43150669  .00001303  00000+0  32218-3 0  9999
2 46972  86.3910 347.8745 0011865  68.0639  58.2244 14.51299210633087
IRIDIUM 33 DEB          
1 46974U 97051ACG 26115.06563964  .00008541  00000+0  22033-2 0  9995
2 46974  86.2984  46.8927 0091880 101.7128 259.4402 14.47388047594359
